[{"OBJECT_NAME":"METEOR-M2 4","OBJECT_ID":"2024-039A","EPOCH":"2026-03-10T00:01:13.262016","MEAN_MOTION":14.22417348,"ECCENTRICITY":0.0008181,"INCLINATION":98.6907,"RA_OF_ASC_NODE":29.6041,"ARG_OF_PERICENTER":95.5481,"MEAN_ANOMALY":264.6631,"EPHEMERIS_TYPE":0,"CLASSIFICATION_TYPE":"U","NORAD_CAT_ID":59051,"ELEMENT_SET_NO":999,"REV_AT_EPOCH":10516,"BSTAR":5.4288673e-5,"MEAN_MOTION_DOT":7.7e-7,"MEAN_MOTION_DDOT":0},{"OBJECT_NAME":"METEOR 2-8 DEB","OBJECT_ID":"1982-025N","EPOCH":"2026-02-28T11:15:25.148448","MEAN_MOTION":14.18804473,"ECCENTRICITY":0.0015737,"INCLINATION":82.5158,"RA_OF_ASC_NODE":333.8074,"ARG_OF_PERICENTER":267.1196,"MEAN_ANOMALY":92.8183,"EPHEMERIS_TYPE":0,"CLASSIFICATION_TYPE":"U","NORAD_CAT_ID":36328,"ELEMENT_SET_NO":999,"REV_AT_EPOCH":65282,"BSTAR":0.0016868509,"MEAN_MOTION_DOT":3.525e-5,"MEAN_MOTION_DDOT":0}]
